HAWK-9A                 
1 59446U 24066E   26068.43100697  .00002638  00000+0  23459-3 0  9992
2 59446  45.6088  72.7153 0003627 244.6286 115.4219 14.98777479104861
STARLINK-34666          
1 64794U 25150E   26068.56609967  .00011540  00000+0  97315-3 0  9991
2 64794  70.0022 134.9587 0003289 265.9377  94.1406 14.98338956 36493
